<?xml version="1.0" encoding="UTF-8"?>
<kml xmlns="http://www.opengis.net/kml/2.2">
<Document>

    <Style id="style_station">
        <IconStyle>
            <scale>0.9</scale>
            <Icon><href>http://maps.google.com/mapfiles/kml/shapes/rail.png</href></Icon>
        </IconStyle>
        <LabelStyle><scale>0.8</scale></LabelStyle>
    </Style>
<name>Shinkansen Stations</name>

                <Placemark>
                    <name>Izumi / 出水</name>
                    <description>Kyushu Shinkansen / 九州新幹線</description>
                    <styleUrl>#style_station</styleUrl>
                    <Point><coordinates>130.3584575,32.0894275,0</coordinates></Point>
                </Placemark>
                <Placemark>
                    <name>Shin-Yatsushiro / 新八代</name>
                    <description>Kyushu Shinkansen / 九州新幹線</description>
                    <styleUrl>#style_station</styleUrl>
                    <Point><coordinates>130.635033,32.517586,0</coordinates></Point>
                </Placemark>
                <Placemark>
                    <name>Shin-Minamata / 新水俣</name>
                    <description>Kyushu Shinkansen / 九州新幹線</description>
                    <styleUrl>#style_station</styleUrl>
                    <Point><coordinates>130.428765,32.210645,0</coordinates></Point>
                </Placemark>
                <Placemark>
                    <name>Kagoshima-Chuo / 鹿児島中央</name>
                    <description>Kyushu Shinkansen / 九州新幹線</description>
                    <styleUrl>#style_station</styleUrl>
                    <Point><coordinates>130.54102999999998,31.583775000000003,0</coordinates></Point>
                </Placemark>
                <Placemark>
                    <name>Sendai / 川内</name>
                    <description>Kyushu Shinkansen / 九州新幹線</description>
                    <styleUrl>#style_station</styleUrl>
                    <Point><coordinates>130.312405,31.813515000000002,0</coordinates></Point>
                </Placemark>
                <Placemark>
                    <name>Shin-Osaka / 新大阪</name>
                    <description>Sanyo Shinkansen / 山陽新幹線</description>
                    <styleUrl>#style_station</styleUrl>
                    <Point><coordinates>135.500035,34.73368000000001,0</coordinates></Point>
                </Placemark>
                <Placemark>
                    <name>Shin-Osaka / 新大阪</name>
                    <description>Sanyo Shinkansen / 山陽新幹線</description>
                    <styleUrl>#style_station</styleUrl>
                    <Point><coordinates>135.50014499999997,34.7334,0</coordinates></Point>
                </Placemark>
                <Placemark>
                    <name>Shin-Kobe / 新神戸</name>
                    <description>Sanyo Shinkansen / 山陽新幹線</description>
                    <styleUrl>#style_station</styleUrl>
                    <Point><coordinates>135.197035,34.707319999999996,0</coordinates></Point>
                </Placemark>
                <Placemark>
                    <name>Nishi-Akashi / 西明石</name>
                    <description>Sanyo Shinkansen / 山陽新幹線</description>
                    <styleUrl>#style_station</styleUrl>
                    <Point><coordinates>134.96057666666667,34.66702,0</coordinates></Point>
                </Placemark>
                <Placemark>
                    <name>Himeji / 姫路</name>
                    <description>Sanyo Shinkansen / 山陽新幹線</description>
                    <styleUrl>#style_station</styleUrl>
                    <Point><coordinates>134.69122333333334,34.82637333333333,0</coordinates></Point>
                </Placemark>
                <Placemark>
                    <name>Aioi / 相生</name>
                    <description>Sanyo Shinkansen / 山陽新幹線</description>
                    <styleUrl>#style_station</styleUrl>
                    <Point><coordinates>134.47436,34.81827,0</coordinates></Point>
                </Placemark>
                <Placemark>
                    <name>Okayama / 岡山</name>
                    <description>Sanyo Shinkansen / 山陽新幹線</description>
                    <styleUrl>#style_station</styleUrl>
                    <Point><coordinates>133.91797,34.665634,0</coordinates></Point>
                </Placemark>
                <Placemark>
                    <name>Shin-Onomichi / 新尾道</name>
                    <description>Sanyo Shinkansen / 山陽新幹線</description>
                    <styleUrl>#style_station</styleUrl>
                    <Point><coordinates>133.19021500000002,34.430080000000004,0</coordinates></Point>
                </Placemark>
                <Placemark>
                    <name>Shin-Kurashiki / 新倉敷</name>
                    <description>Sanyo Shinkansen / 山陽新幹線</description>
                    <styleUrl>#style_station</styleUrl>
                    <Point><coordinates>133.67836,34.565079999999995,0</coordinates></Point>
                </Placemark>
                <Placemark>
                    <name>Fukuyama / 福山</name>
                    <description>Sanyo Shinkansen / 山陽新幹線</description>
                    <styleUrl>#style_station</styleUrl>
                    <Point><coordinates>133.36129999999997,34.4892475,0</coordinates></Point>
                </Placemark>
                <Placemark>
                    <name>Mihara / 三原</name>
                    <description>Sanyo Shinkansen / 山陽新幹線</description>
                    <styleUrl>#style_station</styleUrl>
                    <Point><coordinates>133.08329,34.400825,0</coordinates></Point>
                </Placemark>
                <Placemark>
                    <name>Higashi-Hiroshima / 東広島</name>
                    <description>Sanyo Shinkansen / 山陽新幹線</description>
                    <styleUrl>#style_station</styleUrl>
                    <Point><coordinates>132.75945666666667,34.38919,0</coordinates></Point>
                </Placemark>
                <Placemark>
                    <name>Hiroshima / 広島</name>
                    <description>Sanyo Shinkansen / 山陽新幹線</description>
                    <styleUrl>#style_station</styleUrl>
                    <Point><coordinates>132.47517,34.398465,0</coordinates></Point>
                </Placemark>
                <Placemark>
                    <name>Tokuyama / 徳山</name>
                    <description>Sanyo Shinkansen / 山陽新幹線</description>
                    <styleUrl>#style_station</styleUrl>
                    <Point><coordinates>131.80212833333334,34.051098333333336,0</coordinates></Point>
                </Placemark>
                <Placemark>
                    <name>Shin-Iwakuni / 新岩国</name>
                    <description>Sanyo Shinkansen / 山陽新幹線</description>
                    <styleUrl>#style_station</styleUrl>
                    <Point><coordinates>132.149695,34.16485,0</coordinates></Point>
                </Placemark>
                <Placemark>
                    <name>Asa / 厚狭</name>
                    <description>Sanyo Shinkansen / 山陽新幹線</description>
                    <styleUrl>#style_station</styleUrl>
                    <Point><coordinates>131.16040666666666,34.05300666666667,0</coordinates></Point>
                </Placemark>
                <Placemark>
                    <name>Kokura / 小倉</name>
                    <description>Sanyo Shinkansen / 山陽新幹線</description>
                    <styleUrl>#style_station</styleUrl>
                    <Point><coordinates>130.883455,33.88712,0</coordinates></Point>
                </Placemark>
                <Placemark>
                    <name>Shin-Yamaguchi / 新山口</name>
                    <description>Sanyo Shinkansen / 山陽新幹線</description>
                    <styleUrl>#style_station</styleUrl>
                    <Point><coordinates>131.397235,34.0933,0</coordinates></Point>
                </Placemark>
                <Placemark>
                    <name>Shin-Shimonoseki / 新下関</name>
                    <description>Sanyo Shinkansen / 山陽新幹線</description>
                    <styleUrl>#style_station</styleUrl>
                    <Point><coordinates>130.949175,34.007405000000006,0</coordinates></Point>
                </Placemark>
                <Placemark>
                    <name>Hakata / 博多</name>
                    <description>Sanyo Shinkansen / 山陽新幹線</description>
                    <styleUrl>#style_station</styleUrl>
                    <Point><coordinates>130.421175,33.589574999999996,0</coordinates></Point>
                </Placemark>
                <Placemark>
                    <name>Hakata / 博多</name>
                    <description>Sanyo Shinkansen / 山陽新幹線</description>
                    <styleUrl>#style_station</styleUrl>
                    <Point><coordinates>130.421175,33.589574999999996,0</coordinates></Point>
                </Placemark>
                <Placemark>
                    <name>Hakata-Minami / 博多南</name>
                    <description>Sanyo Shinkansen / 山陽新幹線</description>
                    <styleUrl>#style_station</styleUrl>
                    <Point><coordinates>130.43688500000002,33.51796,0</coordinates></Point>
                </Placemark>
                <Placemark>
                    <name>Tokyo / 東京</name>
                    <description>Tokaido Shinkansen / 東海道新幹線</description>
                    <styleUrl>#style_station</styleUrl>
                    <Point><coordinates>139.76788,35.68110333333333,0</coordinates></Point>
                </Placemark>
                <Placemark>
                    <name>Shinagawa / 品川</name>
                    <description>Tokaido Shinkansen / 東海道新幹線</description>
                    <styleUrl>#style_station</styleUrl>
                    <Point><coordinates>139.74006875,35.629563749999996,0</coordinates></Point>
                </Placemark>
                <Placemark>
                    <name>Shin-Yokohama / 新横浜</name>
                    <description>Tokaido Shinkansen / 東海道新幹線</description>
                    <styleUrl>#style_station</styleUrl>
                    <Point><coordinates>139.61719499999998,35.5069825,0</coordinates></Point>
                </Placemark>
                <Placemark>
                    <name>Odawara / 小田原</name>
                    <description>Tokaido Shinkansen / 東海道新幹線</description>
                    <styleUrl>#style_station</styleUrl>
                    <Point><coordinates>139.154765,35.256209999999996,0</coordinates></Point>
                </Placemark>
                <Placemark>
                    <name>Mishima / 三島</name>
                    <description>Tokaido Shinkansen / 東海道新幹線</description>
                    <styleUrl>#style_station</styleUrl>
                    <Point><coordinates>138.90969,35.12671,0</coordinates></Point>
                </Placemark>
                <Placemark>
                    <name>Atami / 熱海</name>
                    <description>Tokaido Shinkansen / 東海道新幹線</description>
                    <styleUrl>#style_station</styleUrl>
                    <Point><coordinates>139.0781675,35.1044125,0</coordinates></Point>
                </Placemark>
                <Placemark>
                    <name>Shizuoka / 静岡</name>
                    <description>Tokaido Shinkansen / 東海道新幹線</description>
                    <styleUrl>#style_station</styleUrl>
                    <Point><coordinates>138.389675,34.9717425,0</coordinates></Point>
                </Placemark>
                <Placemark>
                    <name>Kakegawa / 掛川</name>
                    <description>Tokaido Shinkansen / 東海道新幹線</description>
                    <styleUrl>#style_station</styleUrl>
                    <Point><coordinates>138.01599833333333,34.76924999999999,0</coordinates></Point>
                </Placemark>
                <Placemark>
                    <name>Shin-Fuji / 新富士</name>
                    <description>Tokaido Shinkansen / 東海道新幹線</description>
                    <styleUrl>#style_station</styleUrl>
                    <Point><coordinates>138.66300875,35.1420675,0</coordinates></Point>
                </Placemark>
                <Placemark>
                    <name>Gifu-Hashima / 岐阜羽島</name>
                    <description>Tokaido Shinkansen / 東海道新幹線</description>
                    <styleUrl>#style_station</styleUrl>
                    <Point><coordinates>136.685755,35.315740000000005,0</coordinates></Point>
                </Placemark>
                <Placemark>
                    <name>Nagoya / 名古屋</name>
                    <description>Tokaido Shinkansen / 東海道新幹線</description>
                    <styleUrl>#style_station</styleUrl>
                    <Point><coordinates>136.8809575,35.17075,0</coordinates></Point>
                </Placemark>
                <Placemark>
                    <name>Maibara / 米原</name>
                    <description>Tokaido Shinkansen / 東海道新幹線</description>
                    <styleUrl>#style_station</styleUrl>
                    <Point><coordinates>136.28952333333334,35.31505666666667,0</coordinates></Point>
                </Placemark>
                <Placemark>
                    <name>Kyoto / 京都</name>
                    <description>Tokaido Shinkansen / 東海道新幹線</description>
                    <styleUrl>#style_station</styleUrl>
                    <Point><coordinates>135.75834333333333,34.98461333333333,0</coordinates></Point>
                </Placemark>
                <Placemark>
                    <name>Mikawa-Anjo / 三河安城</name>
                    <description>Tokaido Shinkansen / 東海道新幹線</description>
                    <styleUrl>#style_station</styleUrl>
                    <Point><coordinates>137.06030333333334,34.96902666666666,0</coordinates></Point>
                </Placemark>
                <Placemark>
                    <name>Hamamatsu / 浜松</name>
                    <description>Tokaido Shinkansen / 東海道新幹線</description>
                    <styleUrl>#style_station</styleUrl>
                    <Point><coordinates>137.7353775,34.70376,0</coordinates></Point>
                </Placemark>
                <Placemark>
                    <name>Toyohashi / 豊橋</name>
                    <description>Tokaido Shinkansen / 東海道新幹線</description>
                    <styleUrl>#style_station</styleUrl>
                    <Point><coordinates>137.38115,34.76289,0</coordinates></Point>
                </Placemark>
                <Placemark>
                    <name>Shin-Osaka / 新大阪</name>
                    <description>Tokaido Shinkansen / 東海道新幹線</description>
                    <styleUrl>#style_station</styleUrl>
                    <Point><coordinates>135.50014499999997,34.7334,0</coordinates></Point>
                </Placemark>
                <Placemark>
                    <name>Shin-Osaka / 新大阪</name>
                    <description>Tokaido Shinkansen / 東海道新幹線</description>
                    <styleUrl>#style_station</styleUrl>
                    <Point><coordinates>135.500035,34.73368000000001,0</coordinates></Point>
                </Placemark>
                <Placemark>
                    <name>Akita / 秋田</name>
                    <description>Akita Shinkansen / 秋田新幹線</description>
                    <styleUrl>#style_station</styleUrl>
                    <Point><coordinates>140.12949500000002,39.717299999999994,0</coordinates></Point>
                </Placemark>
                <Placemark>
                    <name>Akita / 秋田</name>
                    <description>Akita Shinkansen / 秋田新幹線</description>
                    <styleUrl>#style_station</styleUrl>
                    <Point><coordinates>140.12975,39.71755,0</coordinates></Point>
                </Placemark>
                <Placemark>
                    <name>Shin-Aomori / 新青森</name>
                    <description>Yamagata Shinkansen / 山形新幹線</description>
                    <styleUrl>#style_station</styleUrl>
                    <Point><coordinates>140.693365,40.827555000000004,0</coordinates></Point>
                </Placemark>
                <Placemark>
                    <name>Omagari / 大曲</name>
                    <description>Akita Shinkansen / 秋田新幹線</description>
                    <styleUrl>#style_station</styleUrl>
                    <Point><coordinates>140.47954,39.46586,0</coordinates></Point>
                </Placemark>
                <Placemark>
                    <name>Shinjo / 新庄</name>
                    <description>Yamagata Shinkansen / 山形新幹線</description>
                    <styleUrl>#style_station</styleUrl>
                    <Point><coordinates>140.306105,38.762515,0</coordinates></Point>
                </Placemark>
                <Placemark>
                    <name>Fukushima / 福島</name>
                    <description>Yamagata Shinkansen / 山形新幹線</description>
                    <styleUrl>#style_station</styleUrl>
                    <Point><coordinates>140.45962500000002,37.754310000000004,0</coordinates></Point>
                </Placemark>
                <Placemark>
                    <name>Fukushima / 福島</name>
                    <description>Yamagata Shinkansen / 山形新幹線</description>
                    <styleUrl>#style_station</styleUrl>
                    <Point><coordinates>140.45860333333334,37.753710000000005,0</coordinates></Point>
                </Placemark>
                <Placemark>
                    <name>Takahata / 高畠</name>
                    <description>Yamagata Shinkansen / 山形新幹線</description>
                    <styleUrl>#style_station</styleUrl>
                    <Point><coordinates>140.15281,37.992335,0</coordinates></Point>
                </Placemark>
                <Placemark>
                    <name>Murayama / 村山</name>
                    <description>Yamagata Shinkansen / 山形新幹線</description>
                    <styleUrl>#style_station</styleUrl>
                    <Point><coordinates>140.38642,38.4771,0</coordinates></Point>
                </Placemark>
                <Placemark>
                    <name>Kaminoyama-Onsen / かみのやま温泉</name>
                    <description>Yamagata Shinkansen / 山形新幹線</description>
                    <styleUrl>#style_station</styleUrl>
                    <Point><coordinates>140.27845000000002,38.151905,0</coordinates></Point>
                </Placemark>
                <Placemark>
                    <name>Oishida / 大石田</name>
                    <description>Yamagata Shinkansen / 山形新幹線</description>
                    <styleUrl>#style_station</styleUrl>
                    <Point><coordinates>140.375385,38.59582,0</coordinates></Point>
                </Placemark>
                <Placemark>
                    <name>Sakurambo-Higashine / さくらんぼ東根</name>
                    <description>Yamagata Shinkansen / 山形新幹線</description>
                    <styleUrl>#style_station</styleUrl>
                    <Point><coordinates>140.38076,38.42861,0</coordinates></Point>
                </Placemark>
                <Placemark>
                    <name>Tendo / 天童</name>
                    <description>Yamagata Shinkansen / 山形新幹線</description>
                    <styleUrl>#style_station</styleUrl>
                    <Point><coordinates>140.36943,38.36005666666667,0</coordinates></Point>
                </Placemark>
                <Placemark>
                    <name>Yamagata / 山形</name>
                    <description>Yamagata Shinkansen / 山形新幹線</description>
                    <styleUrl>#style_station</styleUrl>
                    <Point><coordinates>140.3274725,38.24845,0</coordinates></Point>
                </Placemark>
                <Placemark>
                    <name>Akayu / 赤湯</name>
                    <description>Yamagata Shinkansen / 山形新幹線</description>
                    <styleUrl>#style_station</styleUrl>
                    <Point><coordinates>140.14901,38.04723,0</coordinates></Point>
                </Placemark>
                <Placemark>
                    <name>Yonezawa / 米沢</name>
                    <description>Yamagata Shinkansen / 山形新幹線</description>
                    <styleUrl>#style_station</styleUrl>
                    <Point><coordinates>140.128285,37.909414999999996,0</coordinates></Point>
                </Placemark>
                <Placemark>
                    <name>Urasa / 浦佐</name>
                    <description>Joetsu Shinkansen / 上越新幹線</description>
                    <styleUrl>#style_station</styleUrl>
                    <Point><coordinates>138.92273500000002,37.16772,0</coordinates></Point>
                </Placemark>
                <Placemark>
                    <name>Nagaoka / 長岡</name>
                    <description>Joetsu Shinkansen / 上越新幹線</description>
                    <styleUrl>#style_station</styleUrl>
                    <Point><coordinates>138.85397,37.447765000000004,0</coordinates></Point>
                </Placemark>
                <Placemark>
                    <name>Tsubame-Sanjo / 燕三条</name>
                    <description>Joetsu Shinkansen / 上越新幹線</description>
                    <styleUrl>#style_station</styleUrl>
                    <Point><coordinates>138.93865000000002,37.64786,0</coordinates></Point>
                </Placemark>
                <Placemark>
                    <name>Niigata / 新潟</name>
                    <description>Joetsu Shinkansen / 上越新幹線</description>
                    <styleUrl>#style_station</styleUrl>
                    <Point><coordinates>139.061745,37.912005,0</coordinates></Point>
                </Placemark>
                <Placemark>
                    <name>Jomo-Kogen / 上毛高原</name>
                    <description>Joetsu Shinkansen / 上越新幹線</description>
                    <styleUrl>#style_station</styleUrl>
                    <Point><coordinates>138.9775975,36.69299,0</coordinates></Point>
                </Placemark>
                <Placemark>
                    <name>Honjo-Waseda / 本庄早稲田</name>
                    <description>Joetsu Shinkansen / 上越新幹線</description>
                    <styleUrl>#style_station</styleUrl>
                    <Point><coordinates>139.17975124999998,36.21867625,0</coordinates></Point>
                </Placemark>
                <Placemark>
                    <name>Echigo-Yuzawa / 越後湯沢</name>
                    <description>Joetsu Shinkansen / 上越新幹線</description>
                    <styleUrl>#style_station</styleUrl>
                    <Point><coordinates>138.80927333333332,36.935719999999996,0</coordinates></Point>
                </Placemark>
                <Placemark>
                    <name>Takasaki / 高崎</name>
                    <description>Joetsu Shinkansen / 上越新幹線</description>
                    <styleUrl>#style_station</styleUrl>
                    <Point><coordinates>139.013024,36.322644000000004,0</coordinates></Point>
                </Placemark>
                <Placemark>
                    <name>Omiya / 大宮</name>
                    <description>Joetsu Shinkansen / 上越新幹線</description>
                    <styleUrl>#style_station</styleUrl>
                    <Point><coordinates>139.62309666666667,35.90617,0</coordinates></Point>
                </Placemark>
                <Placemark>
                    <name>Kumagaya / 熊谷</name>
                    <description>Joetsu Shinkansen / 上越新幹線</description>
                    <styleUrl>#style_station</styleUrl>
                    <Point><coordinates>139.389645,36.1395,0</coordinates></Point>
                </Placemark>
                <Placemark>
                    <name>Shizukuishi / 雫石</name>
                    <description>Akita Shinkansen / 秋田新幹線</description>
                    <styleUrl>#style_station</styleUrl>
                    <Point><coordinates>140.97481,39.68923,0</coordinates></Point>
                </Placemark>
                <Placemark>
                    <name>Morioka / 盛岡</name>
                    <description>Akita Shinkansen / 秋田新幹線</description>
                    <styleUrl>#style_station</styleUrl>
                    <Point><coordinates>141.13653,39.70155,0</coordinates></Point>
                </Placemark>
                <Placemark>
                    <name>Tazawako / 田沢湖</name>
                    <description>Akita Shinkansen / 秋田新幹線</description>
                    <styleUrl>#style_station</styleUrl>
                    <Point><coordinates>140.72229249999998,39.7004425,0</coordinates></Point>
                </Placemark>
                <Placemark>
                    <name>Kakunodate / 角館</name>
                    <description>Akita Shinkansen / 秋田新幹線</description>
                    <styleUrl>#style_station</styleUrl>
                    <Point><coordinates>140.57118,39.591795000000005,0</coordinates></Point>
                </Placemark>
                <Placemark>
                    <name>Omagari / 大曲</name>
                    <description>Akita Shinkansen / 秋田新幹線</description>
                    <styleUrl>#style_station</styleUrl>
                    <Point><coordinates>140.47954,39.46586,0</coordinates></Point>
                </Placemark>
                <Placemark>
                    <name>Ninohe / 二戸</name>
                    <description>Tohoku Shinkansen / 東北新幹線</description>
                    <styleUrl>#style_station</styleUrl>
                    <Point><coordinates>141.28559,40.259775,0</coordinates></Point>
                </Placemark>
                <Placemark>
                    <name>Iwate-Numakunai / いわて沼宮内</name>
                    <description>Tohoku Shinkansen / 東北新幹線</description>
                    <styleUrl>#style_station</styleUrl>
                    <Point><coordinates>141.21742,39.960615000000004,0</coordinates></Point>
                </Placemark>
                <Placemark>
                    <name>Hachinohe / 八戸</name>
                    <description>Tohoku Shinkansen / 東北新幹線</description>
                    <styleUrl>#style_station</styleUrl>
                    <Point><coordinates>141.430935,40.509325000000004,0</coordinates></Point>
                </Placemark>
                <Placemark>
                    <name>Morioka / 盛岡</name>
                    <description>Tohoku Shinkansen / 東北新幹線</description>
                    <styleUrl>#style_station</styleUrl>
                    <Point><coordinates>141.13653,39.70155,0</coordinates></Point>
                </Placemark>
                <Placemark>
                    <name>Kitakami / 北上</name>
                    <description>Tohoku Shinkansen / 東北新幹線</description>
                    <styleUrl>#style_station</styleUrl>
                    <Point><coordinates>141.1226075,39.28225,0</coordinates></Point>
                </Placemark>
                <Placemark>
                    <name>Mizusawa-Esashi / 水沢江刺</name>
                    <description>Tohoku Shinkansen / 東北新幹線</description>
                    <styleUrl>#style_station</styleUrl>
                    <Point><coordinates>141.188705,39.145160000000004,0</coordinates></Point>
                </Placemark>
                <Placemark>
                    <name>Ichinoseki / 一ノ関</name>
                    <description>Tohoku Shinkansen / 東北新幹線</description>
                    <styleUrl>#style_station</styleUrl>
                    <Point><coordinates>141.13909999999998,38.926445,0</coordinates></Point>
                </Placemark>
                <Placemark>
                    <name>Shin-Hanamaki / 新花巻</name>
                    <description>Tohoku Shinkansen / 東北新幹線</description>
                    <styleUrl>#style_station</styleUrl>
                    <Point><coordinates>141.17361499999998,39.4065,0</coordinates></Point>
                </Placemark>
                <Placemark>
                    <name>Furukawa / 古川</name>
                    <description>Tohoku Shinkansen / 東北新幹線</description>
                    <styleUrl>#style_station</styleUrl>
                    <Point><coordinates>140.9677875,38.57075,0</coordinates></Point>
                </Placemark>
                <Placemark>
                    <name>Kurikoma-Kogen / くりこま高原</name>
                    <description>Tohoku Shinkansen / 東北新幹線</description>
                    <styleUrl>#style_station</styleUrl>
                    <Point><coordinates>141.07121857142857,38.74822857142857,0</coordinates></Point>
                </Placemark>
                <Placemark>
                    <name>Sendai / 仙台</name>
                    <description>Tohoku Shinkansen / 東北新幹線</description>
                    <styleUrl>#style_station</styleUrl>
                    <Point><coordinates>140.882155,38.2609725,0</coordinates></Point>
                </Placemark>
                <Placemark>
                    <name>Fukushima / 福島</name>
                    <description>Tohoku Shinkansen / 東北新幹線</description>
                    <styleUrl>#style_station</styleUrl>
                    <Point><coordinates>140.45860333333334,37.753710000000005,0</coordinates></Point>
                </Placemark>
                <Placemark>
                    <name>Shiroishi-Zao / 白石蔵王</name>
                    <description>Tohoku Shinkansen / 東北新幹線</description>
                    <styleUrl>#style_station</styleUrl>
                    <Point><coordinates>140.63296,37.994980000000005,0</coordinates></Point>
                </Placemark>
                <Placemark>
                    <name>Koriyama / 郡山</name>
                    <description>Tohoku Shinkansen / 東北新幹線</description>
                    <styleUrl>#style_station</styleUrl>
                    <Point><coordinates>140.38862,37.39862,0</coordinates></Point>
                </Placemark>
                <Placemark>
                    <name>Nasushiobara / 那須塩原</name>
                    <description>Tohoku Shinkansen / 東北新幹線</description>
                    <styleUrl>#style_station</styleUrl>
                    <Point><coordinates>140.02046857142858,36.931447142857145,0</coordinates></Point>
                </Placemark>
                <Placemark>
                    <name>Shin-Shirakawa / 新白河</name>
                    <description>Tohoku Shinkansen / 東北新幹線</description>
                    <styleUrl>#style_station</styleUrl>
                    <Point><coordinates>140.18903666666668,37.12353,0</coordinates></Point>
                </Placemark>
                <Placemark>
                    <name>Utsunomiya / 宇都宮</name>
                    <description>Tohoku Shinkansen / 東北新幹線</description>
                    <styleUrl>#style_station</styleUrl>
                    <Point><coordinates>139.89809,36.558769999999996,0</coordinates></Point>
                </Placemark>
                <Placemark>
                    <name>Oyama / 小山</name>
                    <description>Tohoku Shinkansen / 東北新幹線</description>
                    <styleUrl>#style_station</styleUrl>
                    <Point><coordinates>139.806355,36.313545000000005,0</coordinates></Point>
                </Placemark>
                <Placemark>
                    <name>Ueno / 上野</name>
                    <description>Tohoku Shinkansen / 東北新幹線</description>
                    <styleUrl>#style_station</styleUrl>
                    <Point><coordinates>139.77738499999998,35.713315,0</coordinates></Point>
                </Placemark>
                <Placemark>
                    <name>Omiya / 大宮</name>
                    <description>Tohoku Shinkansen / 東北新幹線</description>
                    <styleUrl>#style_station</styleUrl>
                    <Point><coordinates>139.62309666666667,35.90617,0</coordinates></Point>
                </Placemark>
                <Placemark>
                    <name>Tokyo / 東京</name>
                    <description>Tohoku Shinkansen / 東北新幹線</description>
                    <styleUrl>#style_station</styleUrl>
                    <Point><coordinates>139.76788,35.68110333333333,0</coordinates></Point>
                </Placemark>
                <Placemark>
                    <name>Takasaki / 高崎</name>
                    <description>Hokuriku Shinkansen / 北陸新幹線</description>
                    <styleUrl>#style_station</styleUrl>
                    <Point><coordinates>139.013024,36.322644000000004,0</coordinates></Point>
                </Placemark>
                <Placemark>
                    <name>Annaka-Haruna / 安中榛名</name>
                    <description>Hokuriku Shinkansen / 北陸新幹線</description>
                    <styleUrl>#style_station</styleUrl>
                    <Point><coordinates>138.84959333333333,36.362543333333335,0</coordinates></Point>
                </Placemark>
                <Placemark>
                    <name>Sakudaira / 佐久平</name>
                    <description>Hokuriku Shinkansen / 北陸新幹線</description>
                    <styleUrl>#style_station</styleUrl>
                    <Point><coordinates>138.46475999999998,36.278200000000005,0</coordinates></Point>
                </Placemark>
                <Placemark>
                    <name>Karuizawa / 軽井沢</name>
                    <description>Hokuriku Shinkansen / 北陸新幹線</description>
                    <styleUrl>#style_station</styleUrl>
                    <Point><coordinates>138.6349175,36.3425975,0</coordinates></Point>
                </Placemark>
                <Placemark>
                    <name>Ueda / 上田</name>
                    <description>Hokuriku Shinkansen / 北陸新幹線</description>
                    <styleUrl>#style_station</styleUrl>
                    <Point><coordinates>138.25023,36.39614,0</coordinates></Point>
                </Placemark>
                <Placemark>
                    <name>Nagano / 長野</name>
                    <description>Hokuriku Shinkansen / 北陸新幹線</description>
                    <styleUrl>#style_station</styleUrl>
                    <Point><coordinates>138.18887,36.642815,0</coordinates></Point>
                </Placemark>
                <Placemark>
                    <name>Shichinohe-Towada / 七戸十和田</name>
                    <description>Tohoku Shinkansen / 東北新幹線</description>
                    <styleUrl>#style_station</styleUrl>
                    <Point><coordinates>141.1539085,40.719931,0</coordinates></Point>
                </Placemark>
                <Placemark>
                    <name>Shin-Aomori / 新青森</name>
                    <description>Tohoku Shinkansen / 東北新幹線</description>
                    <styleUrl>#style_station</styleUrl>
                    <Point><coordinates>140.69347975,40.82779875,0</coordinates></Point>
                </Placemark>
                <Placemark>
                    <name>Kumamoto / 熊本</name>
                    <description>Kyushu Shinkansen / 九州新幹線</description>
                    <styleUrl>#style_station</styleUrl>
                    <Point><coordinates>130.68868600000002,32.79053866666667,0</coordinates></Point>
                </Placemark>
                <Placemark>
                    <name>Shin-Tamana / 新玉名</name>
                    <description>Kyushu Shinkansen / 九州新幹線</description>
                    <styleUrl>#style_station</styleUrl>
                    <Point><coordinates>130.57340833333333,32.942709,0</coordinates></Point>
                </Placemark>
                <Placemark>
                    <name>Shin-Omuta / 新大牟田</name>
                    <description>Kyushu Shinkansen / 九州新幹線</description>
                    <styleUrl>#style_station</styleUrl>
                    <Point><coordinates>130.4887535,33.071315999999996,0</coordinates></Point>
                </Placemark>
                <Placemark>
                    <name>Chikugo-Funagoya / 筑後船小屋</name>
                    <description>Kyushu Shinkansen / 九州新幹線</description>
                    <styleUrl>#style_station</styleUrl>
                    <Point><coordinates>130.492433,33.17797733333333,0</coordinates></Point>
                </Placemark>
                <Placemark>
                    <name>Kurume / 久留米</name>
                    <description>Kyushu Shinkansen / 九州新幹線</description>
                    <styleUrl>#style_station</styleUrl>
                    <Point><coordinates>130.501079,33.320653,0</coordinates></Point>
                </Placemark>
                <Placemark>
                    <name>Shin-Tosu / 新鳥栖</name>
                    <description>Kyushu Shinkansen / 九州新幹線</description>
                    <styleUrl>#style_station</styleUrl>
                    <Point><coordinates>130.49104233333333,33.37052666666667,0</coordinates></Point>
                </Placemark>
                <Placemark>
                    <name>Hakata / 博多</name>
                    <description>Kyushu Shinkansen / 九州新幹線</description>
                    <styleUrl>#style_station</styleUrl>
                    <Point><coordinates>130.421175,33.589574999999996,0</coordinates></Point>
                </Placemark>
                <Placemark>
                    <name>Iiyama / 飯山</name>
                    <description>Hokuriku Shinkansen / 北陸新幹線</description>
                    <styleUrl>#style_station</styleUrl>
                    <Point><coordinates>138.35901085,36.845143199999995,0</coordinates></Point>
                </Placemark>
                <Placemark>
                    <name>Joetsu-Myoko / 上越妙高</name>
                    <description>Hokuriku Shinkansen / 北陸新幹線</description>
                    <styleUrl>#style_station</styleUrl>
                    <Point><coordinates>138.24847131500002,37.081367150000005,0</coordinates></Point>
                </Placemark>
                <Placemark>
                    <name>Joetsu-Myoko / 上越妙高</name>
                    <description>Hokuriku Shinkansen / 北陸新幹線</description>
                    <styleUrl>#style_station</styleUrl>
                    <Point><coordinates>138.24847131500002,37.081367150000005,0</coordinates></Point>
                </Placemark>
                <Placemark>
                    <name>Itoigawa / 糸魚川</name>
                    <description>Hokuriku Shinkansen / 北陸新幹線</description>
                    <styleUrl>#style_station</styleUrl>
                    <Point><coordinates>137.86129316,37.043114454999994,0</coordinates></Point>
                </Placemark>
                <Placemark>
                    <name>Kurobe-Unazukionsen / 黒部宇奈月温泉</name>
                    <description>Hokuriku Shinkansen / 北陸新幹線</description>
                    <styleUrl>#style_station</styleUrl>
                    <Point><coordinates>137.481125775,36.87406446,0</coordinates></Point>
                </Placemark>
                <Placemark>
                    <name>Toyama / 富山</name>
                    <description>Hokuriku Shinkansen / 北陸新幹線</description>
                    <styleUrl>#style_station</styleUrl>
                    <Point><coordinates>137.21330643,36.701438875,0</coordinates></Point>
                </Placemark>
                <Placemark>
                    <name>Shin-Takaoka / 新高岡</name>
                    <description>Hokuriku Shinkansen / 北陸新幹線</description>
                    <styleUrl>#style_station</styleUrl>
                    <Point><coordinates>137.01188026,36.726952165,0</coordinates></Point>
                </Placemark>
                <Placemark>
                    <name>Kanazawa / 金沢</name>
                    <description>Hokuriku Shinkansen / 北陸新幹線</description>
                    <styleUrl>#style_station</styleUrl>
                    <Point><coordinates>136.64804461,36.57791512,0</coordinates></Point>
                </Placemark>
                <Placemark>
                    <name>Okutsugaru-Imabetsu / 奥津軽いまべつ</name>
                    <description>Hokkaido Shinkansen / 北海道新幹線</description>
                    <styleUrl>#style_station</styleUrl>
                    <Point><coordinates>140.515611968,41.144941096,0</coordinates></Point>
                </Placemark>
                <Placemark>
                    <name>Shin-Aomori / 新青森</name>
                    <description>Hokkaido Shinkansen / 北海道新幹線</description>
                    <styleUrl>#style_station</styleUrl>
                    <Point><coordinates>140.69347975,40.82779875,0</coordinates></Point>
                </Placemark>
                <Placemark>
                    <name>Shin-Hakodate-Hokuto / 新函館北斗</name>
                    <description>Hokkaido Shinkansen / 北海道新幹線</description>
                    <styleUrl>#style_station</styleUrl>
                    <Point><coordinates>140.64864975,41.90463233,0</coordinates></Point>
                </Placemark>
                <Placemark>
                    <name>Kikonai / 木古内</name>
                    <description>Hokkaido Shinkansen / 北海道新幹線</description>
                    <styleUrl>#style_station</styleUrl>
                    <Point><coordinates>140.434152005,41.678478319999996,0</coordinates></Point>
                </Placemark>
</Document>
</kml>
